TRANSPORTER-12 OBJECT AZ
1 62656U 25009AZ  26068.71026235  .00016057  00000+0  54903-3 0  9991
2 62656  97.3981 151.9913 0000987  45.3581 314.7740 15.30349724 63792
STARLINK-34816          
1 65467U 25195K   26068.71928102  .00014967  00000+0  51661-3 0  9990
2 65467  53.1594 258.3708 0001373  34.8226 325.2865 15.30189195 29991
