[{"OBJECT_NAME":"TRANSPORTER-12 OBJECT AZ","OBJECT_ID":"2025-009AZ","EPOCH":"2026-03-09T17:02:46.667040","MEAN_MOTION":15.30349724,"ECCENTRICITY":9.87e-5,"INCLINATION":97.3981,"RA_OF_ASC_NODE":151.9913,"ARG_OF_PERICENTER":45.3581,"MEAN_ANOMALY":314.774,"EPHEMERIS_TYPE":0,"CLASSIFICATION_TYPE":"U","NORAD_CAT_ID":62656,"ELEMENT_SET_NO":999,"REV_AT_EPOCH":6379,"BSTAR":0.00054902545,"MEAN_MOTION_DOT":0.00016057,"MEAN_MOTION_DDOT":0},{"OBJECT_NAME":"STARLINK-34816","OBJECT_ID":"2025-195K","EPOCH":"2026-03-09T17:15:45.880992","MEAN_MOTION":15.30189195,"ECCENTRICITY":0.00013731,"INCLINATION":53.1594,"RA_OF_ASC_NODE":258.3708,"ARG_OF_PERICENTER":34.8226,"MEAN_ANOMALY":325.2865,"EPHEMERIS_TYPE":0,"CLASSIFICATION_TYPE":"U","NORAD_CAT_ID":65467,"ELEMENT_SET_NO":999,"REV_AT_EPOCH":2999,"BSTAR":0.00051660617,"MEAN_MOTION_DOT":0.00014967,"MEAN_MOTION_DDOT":0}]
